NORAD_CAT_ID,OBJECT_NAME,OBJECT_TYPE,EPOCH,MEAN_MOTION,ECCENTRICITY,INCLINATION,RA_OF_ASC_NODE,ARG_OF_PERICENTER,MEAN_ANOMALY,BSTAR,MEAN_MOTION_DOT,MEAN_MOTION_DDOT,TLE_LINE0,TLE_LINE1,TLE_LINE2,SEMIMAJOR_AXIS,PERIOD,APOGEE,PERIGEE,DECAYED
49424.0,STARLINK-3135,PAYLOAD,2022-09-26 01:48:03,15.08839038,0.000159,53.216,128.2465,66.4871,293.6288,-0.00012941,-2.347e-05,0.0,0 STARLINK-3135,1 49424U 21104S   22269.07503586 -.00002347  00000-0 -12941-3 0  9994,2 49424  53.2160 128.2465 0001590  66.4871 293.6288 15.08839038 48316,6917.8830000000025,95.438,540.8480000000002,538.648,0.0
49424.0,STARLINK-3135,PAYLOAD,2022-09-26 20:52:40,15.0884487,0.0001571999999999,53.216,124.6778,69.6114,290.5047,-2.7794e-05,-7.299999999999999e-06,0.0,0 STARLINK-3135,1 49424U 21104S   22269.86991030 -.00000730  00000-0 -27794-4 0  9993,2 49424  53.2160 124.6778 0001572  69.6114 290.5047 15.08844870 48430,6917.866,95.437,540.818,538.643,0.0
49424.0,STARLINK-3135,PAYLOAD,2022-09-27 01:38:49,15.08847015,0.0001601,53.2161,123.7858,69.9133,290.2031,-5.7845e-06,-3.8e-06,0.0,0 STARLINK-3135,1 49424U 21104S   22270.06862791 -.00000380  00000-0 -57845-5 0  9990,2 49424  53.2161 123.7858 0001601  69.9133 290.2031 15.08847015 49544,6917.859,95.437,540.831,538.616,0.0
49424.0,STARLINK-3135,PAYLOAD,2022-09-27 19:08:04,15.08834403,0.0001584,53.2162,120.5155,66.25399999999999,293.8618,0.00010855,1.44e-05,0.0,0 STARLINK-3135,1 49424U 21104S   22270.79727110  .00001440  00000-0  10855-3 0  9999,2 49424  53.2162 120.5155 0001584  66.2540 293.8618 15.08834403 49651,6917.897,95.438,540.8580000000002,538.6669999999998,0.0
49424.0,STARLINK-3135,PAYLOAD,2022-09-28 01:29:36,15.08836835,0.0001599,53.2161,119.3259,66.87,293.2461,0.00012247,1.661e-05,0.0,0 STARLINK-3135,1 49424U 21104S   22271.06223040  .00001661  00000-0  12247-3 0  9995,2 49424  53.2161 119.3259 0001599  66.8700 293.2461 15.08836835 48617,6917.89,95.438,540.861,538.649,0.0
49424.0,STARLINK-3135,PAYLOAD,2022-09-28 20:34:14,15.08834759,0.0001594,53.2162,115.7576,66.8554,293.2606,-1.5481e-05,-5.34e-06,0.0,0 STARLINK-3135,1 49424U 21104S   22271.85711722 -.00000534  00000-0 -15481-4 0  9995,2 49424  53.2162 115.7576 0001594  66.8554 293.2606 15.08834759 48739,6917.896,95.438,540.864,538.659,0.0
49424.0,STARLINK-3135,PAYLOAD,2022-09-29 01:20:24,15.08836733,0.0001581,53.216,114.8641,72.8165,287.3,4.486e-05,4.26e-06,0.0,0 STARLINK-3135,1 49424U 21104S   22272.05583481  .00000426  00000-0  44860-4 0  9998,2 49424  53.2160 114.8641 0001581  72.8165 287.3000 15.08836733 49840,6917.89,95.438,540.849,538.6619999999998,0.0
49424.0,STARLINK-3135,PAYLOAD,2022-09-29 12:28:07,15.08772841,0.0001584,53.2164,112.784,81.8865,278.2307,0.0010199999999999,0.00015953,0.0,0 STARLINK-3135,1 49424U 21104S   22272.51953589  .00015953  00000-0  10200-2 0  9999,2 49424  53.2164 112.7840 0001584  81.8865 278.2307 15.08772841 49918,6918.0859999999975,95.442,541.0459999999998,538.855,0.0
49424.0,STARLINK-3135,PAYLOAD,2022-09-29 15:38:52,15.0883301,0.0001240999999999,53.2167,112.1878,60.3264,299.7852,-8.8044e-06,-4.28e-06,0.0,0 STARLINK-3135,1 49424U 21104S   22272.65199784 -.00000428  00000-0 -88044-5 0  9990,2 49424  53.2167 112.1878 0001241  60.3264 299.7852 15.08833010 48852,6917.901999999999,95.438,540.625,538.908,0.0
49424.0,STARLINK-3135,PAYLOAD,2022-09-30 05:57:20,15.08837777,0.0001438,53.2168,109.5123,66.8165,293.2979,1.976e-05,2.7e-07,0.0,0 STARLINK-3135,1 49424U 21104S   22273.24815622  .00000027  00000-0  19760-4 0  9993,2 49424  53.2168 109.5123 0001438  66.8165 293.2979 15.08837777 48948,6917.887,95.438,540.747,538.757,0.0
49424.0,STARLINK-3135,PAYLOAD,2022-09-30 15:29:39,15.0883855,0.0001215,53.2168,107.7279,74.0073,286.1053,6.1459e-05,6.900000000000003e-06,0.0,0 STARLINK-3135,1 49424U 21104S   22273.64559517  .00000690  00000-0  61459-4 0  9993,2 49424  53.2168 107.7279 0001215  74.0073 286.1053 15.08838550 50084,6917.885,95.438,540.59,538.909,0.0
49424.0,STARLINK-3135,PAYLOAD,2022-09-30 20:15:48,15.08843957,0.0001395999999999,53.2163,106.8365,64.816,295.2976,0.00011193,1.494e-05,0.0,0 STARLINK-3135,1 49424U 21104S   22273.84431078  .00001494  00000-0  11193-3 0  9998,2 49424  53.2163 106.8365 0001396  64.8160 295.2976 15.08843957 49034,6917.868,95.437,540.6990000000002,538.768,0.0
49424.0,STARLINK-3135,PAYLOAD,2022-10-01 01:01:57,15.0884753,0.0001415,53.2163,105.9442,64.8208,295.293,0.0001309,1.796e-05,0.0,0 STARLINK-3135,1 49424U 21104S   22274.04302791  .00001796  00000-0  13090-3 0  9993,2 49424  53.2163 105.9442 0001415  64.8208 295.2930 15.08847530 50140,6917.857,95.437,540.701,538.743,0.0
49424.0,STARLINK-3135,PAYLOAD,2022-10-01 12:09:39,15.08843885,0.0001599,53.2157,103.8629,65.0378,295.078,8.4928e-05,1.064e-05,0.0,0 STARLINK-3135,1 49424U 21104S   22274.50671173  .00001064  00000-0  84928-4 0  9994,2 49424  53.2157 103.8629 0001599  65.0378 295.0780 15.08843885 49138,6917.869000000002,95.437,540.84,538.627,0.0
49424.0,STARLINK-3135,PAYLOAD,2022-10-01 18:31:12,15.08834634,0.0001655,53.2167,102.6739,67.3942,292.7225,0.00012541,1.708e-05,0.0,0 STARLINK-3135,1 49424U 21104S   22274.77167626  .00001708  00000-0  12541-3 0  9992,2 49424  53.2167 102.6739 0001655  67.3942 292.7225 15.08834634 50258,6917.897,95.438,540.9069999999998,538.617,0.0
49424.0,STARLINK-3135,PAYLOAD,2022-10-01 20:06:35,15.08836615,0.0001604,53.2165,102.3769,61.9979,298.1176,0.00014006,1.942e-05,0.0,0 STARLINK-3135,1 49424U 21104S   22274.83791475  .00001942  00000-0  14006-3 0  9992,2 49424  53.2165 102.3769 0001604  61.9979 298.1176 15.08836615 49186,6917.891,95.438,540.865,538.646,0.0
49424.0,STARLINK-3135,PAYLOAD,2022-10-02 12:00:27,15.08837117,0.0001549,53.2163,99.4022,63.9199,296.1952,5.783e-05,6.32e-06,0.0,0 STARLINK-3135,1 49424U 21104S   22275.50031805  .00000632  00000-0  57830-4 0  9999,2 49424  53.2163  99.4022 0001549  63.9199 296.1952 15.08837117 49285,6917.889,95.438,540.826,538.683,0.0
49424.0,STARLINK-3135,PAYLOAD,2022-10-02 19:57:22,15.08842348,0.0001568,53.2161,97.9155,67.4286,292.6872,1.677e-05,-2.1e-07,0.0,0 STARLINK-3135,1 49424U 21104S   22275.83151557 -.00000021  00000-0  16770-4 0  9993,2 49424  53.2161  97.9155 0001568  67.4286 292.6872 15.08842348 49330,6917.873000000001,95.437,540.823,538.653,0.0
49424.0,STARLINK-3135,PAYLOAD,2022-10-02 21:32:46,15.08843236,0.0001618,53.2157,97.618,64.4055,295.7104,2.7424e-05,1.48e-06,0.0,0 STARLINK-3135,1 49424U 21104S   22275.89775477  .00000148  00000-0  27424-4 0  9999,2 49424  53.2157  97.6180 0001618  64.4055 295.7104 15.08843236 50428,6917.87,95.437,540.855,538.616,0.0
49424.0,STARLINK-3135,PAYLOAD,2022-10-03 11:51:13,15.08849269,0.0001464,53.2164,94.9418,61.1754,298.9385,7.0738e-05,8.38e-06,0.0,0 STARLINK-3135,1 49424U 21104S   22276.49390797  .00000838  00000-0  70738-4 0  9996,2 49424  53.2164  94.9418 0001464  61.1754 298.9385 15.08849269 49436,6917.852,95.437,540.73,538.7040000000002,0.0
49424.0,STARLINK-3135,PAYLOAD,2022-10-03 18:12:46,15.08846764,0.0001473,53.2165,93.7521,61.8919,298.2222,0.00013667,1.888e-05,0.0,0 STARLINK-3135,1 49424U 21104S   22276.75886821  .00001888  00000-0  13667-3 0  9996,2 49424  53.2165  93.7521 0001473  61.8919 298.2222 15.08846764 49473,6917.86,95.437,540.744,538.706,0.0
49424.0,STARLINK-3135,PAYLOAD,2022-10-03 22:58:55,15.08845733,0.00015,53.2168,92.8602,60.8442,299.2701,0.00010221,1.339e-05,0.0,0 STARLINK-3135,1 49424U 21104S   22276.95759005  .00001339  00000-0  10221-3 0  9995,2 49424  53.2168  92.8602 0001500  60.8442 299.2701 15.08845733 50589,6917.863,95.437,540.766,538.69,0.0
49424.0,STARLINK-3135,PAYLOAD,2022-10-04 11:42:01,15.08840623,0.0001491,53.2161,90.4818,60.3777,299.7363,0.000123,1.67e-05,0.0,0 STARLINK-3135,1 49424U 21104S   22277.48751306  .00001670  00000-0  12300-3 0  9998,2 49424  53.2161  90.4818 0001491  60.3777 299.7363 15.08840623 49580,6917.878000000002,95.438,540.775,538.712,0.0
49424.0,STARLINK-3135,PAYLOAD,2022-10-04 18:03:33,15.08842404,0.0001495,53.2169,89.2922,61.1258,298.9884,0.00011162,1.489e-05,0.0,0 STARLINK-3135,1 49424U 21104S   22277.75247108  .00001489  00000-0  11162-3 0  9991,2 49424  53.2169  89.2922 0001495  61.1258 298.9884 15.08842404 49620,6917.873000000001,95.437,540.7719999999998,538.7040000000002,0.0
49424.0,STARLINK-3135,PAYLOAD,2022-10-05 11:32:48,15.08843241,0.0001455,53.2154,86.0189,67.7488,292.3658,-8.9426e-07,-3.02e-06,0.0,0 STARLINK-3135,1 49424U 21104S   22278.48111205 -.00000302  00000-0 -89426-6 0  9996,2 49424  53.2154  86.0189 0001455  67.7488 292.3658 15.08843241 49736,6917.87,95.437,540.742,538.729,0.0
49424.0,STARLINK-3135,PAYLOAD,2022-10-06 11:23:35,15.08837118,0.0001476,53.2153,81.5574,74.003,286.1124,1.0568e-05,-1.2e-06,0.0,0 STARLINK-3135,1 49424U 21104S   22279.47471748 -.00000120  00000-0  10568-4 0  9993,2 49424  53.2153  81.5574 0001476  74.0030 286.1124 15.08837118 49881,6917.889,95.438,540.775,538.7330000000002,0.0
49424.0,STARLINK-3135,PAYLOAD,2022-10-06 17:45:08,15.08833513,0.0001459,53.216,80.3709,55.7076,304.4054,4.1856e-05,3.78e-06,0.0,0 STARLINK-3135,1 49424U 21104S   22279.73968030  .00000378  00000-0  41856-4 0  9995,2 49424  53.2160  80.3709 0001459  55.7076 304.4054 15.08833513 51001,6917.9,95.438,540.775,538.756,0.0
49424.0,STARLINK-3135,PAYLOAD,2022-10-06 22:31:17,15.08840519,0.0001463,53.2164,79.4783,57.1676,302.9457,6.497399999999999e-05,7.46e-06,0.0,0 STARLINK-3135,1 49424U 21104S   22279.93839554  .00000746  00000-0  64974-4 0  9990,2 49424  53.2164  79.4783 0001463  57.1676 302.9457 15.08840519 51030,6917.879,95.438,540.756,538.732,0.0
49424.0,STARLINK-3135,PAYLOAD,2022-10-07 19:11:18,15.08838055,0.0001496,53.2175,75.6131,59.8839,300.2301,0.00010382,1.365e-05,0.0,0 STARLINK-3135,1 49424U 21104S   22280.79951748  .00001365  00000-0  10382-3 0  9997,2 49424  53.2175  75.6131 0001496  59.8839 300.2301 15.08838055 50088,6917.886,95.438,540.786,538.716,0.0
